{
  "type": "FeatureCollection",
  "features": [
    {
      "type": "Feature",
      "properties": {
        "norad_id": 66664,
        "name": "SOYUZ-MS 28",
        "group": "last-30-days",
        "lat": 2.3343100676243846,
        "lon": -20.34332984124545,
        "alt_km": 417.1968461721417,
        "timestamp": "2025-12-08T21:31:03.448781+00:00",
        "meta_object_name": "SOYUZ-MS 28",
        "meta_object_id": "2025-275A",
        "meta_epoch": "2025-12-08T13:01:02.621280",
        "meta_mean_motion": 15.49420853,
        "meta_eccentricity": 0.00033936,
        "meta_inclination": 51.6307,
        "meta_ra_of_asc_node": 163.2617,
        "meta_arg_of_pericenter": 220.7658,
        "meta_mean_anomaly": 139.3077,
        "meta_ephemeris_type": 0,
        "meta_classification_type": "U",
        "meta_norad_cat_id": 66664,
        "meta_element_set_no": 999,
        "meta_rev_at_epoch": 128,
        "meta_bstar": 0.00023027995,
        "meta_mean_motion_dot": 0.00012445,
        "meta_mean_motion_ddot": 0,
        "tle_line1": "1 66664U 25275A   25342.54239145  .00012445  00000+0  23028-3 0  9991",
        "tle_line2": "2 66664  51.6307 163.2617 0003393 220.7658 139.3077 15.49420853  1288"
      },
      "geometry": {
        "type": "Point",
        "coordinates": [
          -20.34332984124545,
          2.3343100676243846
        ]
      }
    },
    {
      "type": "Feature",
      "properties": {
        "norad_id": 66820,
        "name": "KOMPSAT-7",
        "group": "last-30-days",
        "lat": 36.12784881521554,
        "lon": 114.46364903097012,
        "alt_km": 569.6011493418309,
        "timestamp": "2025-12-08T21:31:03.448792+00:00",
        "meta_object_name": "KOMPSAT-7",
        "meta_object_id": "2025-279A",
        "meta_epoch": "2025-12-08T14:28:04.424736",
        "meta_mean_motion": 14.98369604,
        "meta_eccentricity": 0.0009431,
        "meta_inclination": 97.64,
        "meta_ra_of_asc_node": 288.553,
        "meta_arg_of_pericenter": 235.5976,
        "meta_mean_anomaly": 124.4356,
        "meta_ephemeris_type": 0,
        "meta_classification_type": "U",
        "meta_norad_cat_id": 66820,
        "meta_element_set_no": 999,
        "meta_rev_at_epoch": 103,
        "meta_bstar": 0.00038346512,
        "meta_mean_motion_dot": 4.517e-05,
        "meta_mean_motion_ddot": 0,
        "tle_line1": "1 66820U 25279A   25342.60282899  .00004517  00000+0  38347-3 0  9991",
        "tle_line2": "2 66820  97.6400 288.5530 0009431 235.5976 124.4356 14.98369604  1034"
      },
      "geometry": {
        "type": "Point",
        "coordinates": [
          114.46364903097012,
          36.12784881521554
        ]
      }
    },
    {
      "type": "Feature",
      "properties": {
        "norad_id": 66877,
        "name": "ZQ-3 R/B",
        "group": "last-30-days",
        "lat": 0.49561598218108005,
        "lon": 72.60184356035563,
        "alt_km": 1205.7256203034194,
        "timestamp": "2025-12-08T21:31:03.448804+00:00",
        "meta_object_name": "ZQ-3 R/B",
        "meta_object_id": "2025-282A",
        "meta_epoch": "2025-12-08T13:14:07.041696",
        "meta_mean_motion": 14.48496817,
        "meta_eccentricity": 0.0824928,
        "meta_inclination": 56.9535,
        "meta_ra_of_asc_node": 73.5803,
        "meta_arg_of_pericenter": 212.7601,
        "meta_mean_anomaly": 141.961,
        "meta_ephemeris_type": 0,
        "meta_classification_type": "U",
        "meta_norad_cat_id": 66877,
        "meta_element_set_no": 999,
        "meta_rev_at_epoch": 78,
        "meta_bstar": 0.00024517545,
        "meta_mean_motion_dot": 0.01155966,
        "meta_mean_motion_ddot": 7.307421e-06,
        "tle_line1": "1 66877U 25282A   25342.55147039  .01155966  73074-5  24518-3 0  9995",
        "tle_line2": "2 66877  56.9535  73.5803 0824928 212.7601 141.9610 14.48496817   786"
      },
      "geometry": {
        "type": "Point",
        "coordinates": [
          72.60184356035563,
          0.49561598218108005
        ]
      }
    },
    {
      "type": "Feature",
      "properties": {
        "norad_id": 66906,
        "name": "1998-067XS",
        "group": "last-30-days",
        "lat": -10.715877713259287,
        "lon": -9.903630260900952,
        "alt_km": 415.2188790351265,
        "timestamp": "2025-12-08T21:31:03.448816+00:00",
        "meta_object_name": "1998-067XS",
        "meta_object_id": "1998-067XS",
        "meta_epoch": "2025-12-08T12:57:01.602432",
        "meta_mean_motion": 15.50249516,
        "meta_eccentricity": 0.000407,
        "meta_inclination": 51.6299,
        "meta_ra_of_asc_node": 163.2435,
        "meta_arg_of_pericenter": 183.7827,
        "meta_mean_anomaly": 176.3132,
        "meta_ephemeris_type": 0,
        "meta_classification_type": "U",
        "meta_norad_cat_id": 66906,
        "meta_element_set_no": 999,
        "meta_rev_at_epoch": 96,
        "meta_bstar": 0.00052843815,
        "meta_mean_motion_dot": 0.0003009,
        "meta_mean_motion_ddot": 0,
        "tle_line1": "1 66906U 98067XS  25342.53960188  .00030090  00000+0  52844-3 0  9990",
        "tle_line2": "2 66906  51.6299 163.2435 0004070 183.7827 176.3132 15.50249516   968"
      },
      "geometry": {
        "type": "Point",
        "coordinates": [
          -9.903630260900952,
          -10.715877713259287
        ]
      }
    },
    {
      "type": "Feature",
      "properties": {
        "norad_id": 66907,
        "name": "1998-067XT",
        "group": "last-30-days",
        "lat": -15.126765110233519,
        "lon": -6.171165310287214,
        "alt_km": 413.58531932440746,
        "timestamp": "2025-12-08T21:31:03.448827+00:00",
        "meta_object_name": "1998-067XT",
        "meta_object_id": "1998-067XT",
        "meta_epoch": "2025-12-08T12:55:42.371040",
        "meta_mean_motion": 15.507285,
        "meta_eccentricity": 0.00049427,
        "meta_inclination": 51.6299,
        "meta_ra_of_asc_node": 163.2377,
        "meta_arg_of_pericenter": 202.7949,
        "meta_mean_anomaly": 157.2822,
        "meta_ephemeris_type": 0,
        "meta_classification_type": "U",
        "meta_norad_cat_id": 66907,
        "meta_element_set_no": 999,
        "meta_rev_at_epoch": 96,
        "meta_bstar": 0.00115984,
        "meta_mean_motion_dot": 0.00068077,
        "meta_mean_motion_ddot": 0,
        "tle_line1": "1 66907U 98067XT  25342.53868485  .00068077  00000+0  11598-2 0  9994",
        "tle_line2": "2 66907  51.6299 163.2377 0004942 202.7949 157.2822 15.50728500   968"
      },
      "geometry": {
        "type": "Point",
        "coordinates": [
          -6.171165310287214,
          -15.126765110233519
        ]
      }
    },
    {
      "type": "Feature",
      "properties": {
        "norad_id": 66908,
        "name": "1998-067XU",
        "group": "last-30-days",
        "lat": -15.92126837068828,
        "lon": -5.477962179441092,
        "alt_km": 413.41347111517007,
        "timestamp": "2025-12-08T21:31:03.448837+00:00",
        "meta_object_name": "1998-067XU",
        "meta_object_id": "1998-067XU",
        "meta_epoch": "2025-12-08T14:28:14.784096",
        "meta_mean_motion": 15.5077485,
        "meta_eccentricity": 0.00051439,
        "meta_inclination": 51.6294,
        "meta_ra_of_asc_node": 162.9167,
        "meta_arg_of_pericenter": 202.1704,
        "meta_mean_anomaly": 157.9063,
        "meta_ephemeris_type": 0,
        "meta_classification_type": "U",
        "meta_norad_cat_id": 66908,
        "meta_element_set_no": 999,
        "meta_rev_at_epoch": 97,
        "meta_bstar": 0.0010998986,
        "meta_mean_motion_dot": 0.00064615,
        "meta_mean_motion_ddot": 0,
        "tle_line1": "1 66908U 98067XU  25342.60294889  .00064615  00000+0  10999-2 0  9992",
        "tle_line2": "2 66908  51.6294 162.9167 0005143 202.1704 157.9063 15.50774850   978"
      },
      "geometry": {
        "type": "Point",
        "coordinates": [
          -5.477962179441092,
          -15.92126837068828
        ]
      }
    },
    {
      "type": "Feature",
      "properties": {
        "norad_id": 66909,
        "name": "SILVERSAT",
        "group": "last-30-days",
        "lat": -16.45719430691844,
        "lon": -5.00639167908313,
        "alt_km": 413.31398710729263,
        "timestamp": "2025-12-08T21:31:03.448847+00:00",
        "meta_object_name": "SILVERSAT",
        "meta_object_id": "1998-067XV",
        "meta_epoch": "2025-12-08T12:55:17.890464",
        "meta_mean_motion": 15.50849748,
        "meta_eccentricity": 0.00049826,
        "meta_inclination": 51.6295,
        "meta_ra_of_asc_node": 163.2358,
        "meta_arg_of_pericenter": 203.4161,
        "meta_mean_anomaly": 156.6602,
        "meta_ephemeris_type": 0,
        "meta_classification_type": "U",
        "meta_norad_cat_id": 66909,
        "meta_element_set_no": 999,
        "meta_rev_at_epoch": 96,
        "meta_bstar": 0.001262733,
        "meta_mean_motion_dot": 0.00074541,
        "meta_mean_motion_ddot": 0,
        "tle_line1": "1 66909U 98067XV  25342.53840151  .00074541  00000+0  12627-2 0  9993",
        "tle_line2": "2 66909  51.6295 163.2358 0004982 203.4161 156.6602 15.50849748   960"
      },
      "geometry": {
        "type": "Point",
        "coordinates": [
          -5.00639167908313,
          -16.45719430691844
        ]
      }
    }
  ]
}